STARLINK-34826          
1 65360C 25190K   26192.03868056 -.00009533  00000+0 -28180-3 0  1921
2 65360  53.1579 313.5585 0000691  91.6950 289.0251 15.34381068    15
STARLINK-34800          
1 65361C 25190L   26192.00812500 -.00024466  00000+0 -82495-3 0  1923
2 65361  53.1584 315.0290 0001019  84.0094 169.8059 15.30190154    13
STARLINK-34817          
1 65362C 25190M   26192.00048611 -.00019544  00000+0 -57746-3 0  1920
2 65362  53.1581 313.6191 0001032  85.2197 142.5317 15.34399557    14
STARLINK-34797          
1 65363C 25190N   26192.01090278 -.00006797  00000+0 -20086-3 0  1921
2 65363  53.1597 314.0541 0000832  85.0443 316.0858 15.34386429    17
STARLINK-34729          
1 65364C 25190P   26192.03104167 -.00016036  00000+0 -54048-3 0  1929
2 65364  53.1590 315.2109 0000811  93.0439 141.6723 15.30199040    15
STARLINK-34710          
1 65365C 25190Q   26191.99562500 -.00023051  00000+0 -77695-3 0  1910
2 65365  53.1592 315.7672 0000760  83.5689 118.1553 15.30201268    18
STARLINK-34943          
1 65366C 25190R   26191.99145833 -.00019027  00000+0 -56218-3 0  1913
2 65366  53.1596 314.1676 0000821  61.1138 220.9048 15.34399023    11
STARLINK-34946          
1 65367C 25190S   26192.00326389 -.00016404  00000+0 -48495-3 0  1929
2 65367  53.1595 314.0159 0000985  74.1708 319.6288 15.34380653    15
STARLINK-34259          
1 65368C 25190T   26192.00673611 -.00014313  00000+0 -42309-3 0  1928
2 65368  53.1592 313.9354 0001226  80.7302   7.1443 15.34382744    15
STARLINK-34913          
1 65369C 25190U   26192.02270833 -.00004595  00000+0 -13578-3 0  1927
2 65369  53.1587 314.1337 0000821  85.8302 310.7862 15.34384990    13
STARLINK-34870          
1 65370C 25190V   26192.01229167 -.00123590  00000+0 -41712-2 0  1929
2 65370  53.1594 315.3101 0001078  90.5004  35.0494 15.30209491    18
STARLINK-34869          
1 65371C 25190W   26192.00812500 -.00016935  00000+0 -57087-3 0  1925
2 65371  53.1599 315.3491 0000995  90.3910   0.5603 15.30195368    13
STARLINK-34903          
1 65372C 25190X   26191.98798611 -.00021928  00000+0 -73929-3 0  1918
2 65372  53.1583 315.2999 0001118  88.0801 321.6752 15.30192523    12
STARLINK-34891          
1 65373C 25190Y   26192.01854167 -.00019090  00000+0 -56416-3 0  1923
2 65373  53.1584 313.6630 0000861 101.0286 156.7711 15.34393380    15
STARLINK-34900          
1 65374C 25190Z   26192.00604167 -.00017267  00000+0 -58210-3 0  1924
2 65374  53.1580 315.2529 0000992  83.0282  48.7946 15.30192205    16
STARLINK-34305          
1 65375C 25190AA  26191.98243056 -.00021614  00000+0 -72872-3 0  1917
2 65375  53.1579 315.3369 0000999  81.0315 292.2854 15.30192227    18
STARLINK-34249          
1 65376C 25190AB  26192.01715278 -.00019318  00000+0 -57105-3 0  1924
2 65376  53.1583 313.5767 0000721  92.0133 204.6207 15.34383693    11
STARLINK-34879          
1 65377C 25190AC  26192.01715278 -.00020092  00000+0 -67735-3 0  1926
2 65377  53.1578 315.0840 0000922  95.1440 156.0926 15.30193411    14
STARLINK-34912          
1 65378C 25190AD  26192.00673611 -.00020059  00000+0 -67600-3 0  1924
2 65378  53.1581 315.0628 0000604  80.0899 148.6143 15.30204786    17
STARLINK-34985          
1 65379C 25191A   26191.99909722  .00073239  00000+0  50851-2 0  1912
2 65379  97.2857  61.1071 0002843  90.6562 157.6928 15.05617319    18
STARLINK-35051          
1 65380C 25191B   26192.00673611  .00082284  00000+0  57136-2 0  1926
2 65380  97.2871  61.1992 0002408  86.5882  38.1005 15.05611071    12
STARLINK-35028          
1 65381C 25191C   26191.99354167  .00078380  00000+0  54412-2 0  1911
2 65381  97.2868  61.2278 0002824  90.3609  52.7700 15.05620606    17
STARLINK-35032          
1 65382C 25191D   26192.02756944  .00078966  00000+0  54811-2 0  1920
2 65382  97.2844  61.1730 0002591  76.6458  55.8191 15.05626544    19
STARLINK-35054          
1 65383C 25191E   26191.99006944  .00076136  00000+0  52849-2 0  1919
2 65383  97.2860  61.0818 0002895  91.6770  62.7029 15.05625099    16
STARLINK-35012          
1 65384C 25191F   26192.01923611  .00071654  00000+0  49751-2 0  1922
2 65384  97.2850  61.1457 0001950  95.4515 306.9754 15.05619764    16
STARLINK-35073          
1 65385C 25191G   26192.01090278  .00058073  00000+0  40321-2 0  1921
2 65385  97.2861  61.1767 0002251  89.8079 357.4631 15.05625890    12
STARLINK-35066          
1 65386C 25191H   26191.99215278  .00079177  00000+0  54984-2 0  1914
2 65386  97.2868  61.2063 0002108  95.1030 355.5725 15.05609647    13
STARLINK-34703          
1 65387C 25191J   26192.01368056  .00074664  00000+0  51838-2 0  1924
2 65387  97.2860  61.1924 0002493  82.4144  49.8883 15.05619070    12
STARLINK-34957          
1 65388C 25191K   26192.00187500  .00079885  00000+0  55471-2 0  1924
2 65388  97.2868  61.2296 0002607  90.0708  83.2674 15.05611208    17
STARLINK-34993          
1 65389C 25191L   26191.99701389  .00071621  00000+0  49753-2 0  1914
2 65389  97.2853  61.1183 0001794  83.0486 183.9812 15.05601310    12
STARLINK-35083          
1 65390C 25191M   26192.03381944  .00074406  00000+0  51656-2 0  1923
2 65390  97.2857  61.1299 0003283  88.1788 318.2241 15.05619418    19
STARLINK-34786          
1 65391C 25191N   26191.99145833  .00078847  00000+0  54746-2 0  1918
2 65391  97.2869  61.1988 0002869  86.6182 345.3079 15.05613336    11
STARLINK-35082          
1 65392C 25191P   26192.02687500  .00074893  00000+0  52028-2 0  1925
2 65392  97.2866  61.2658 0001908 107.7198 231.0682 15.05597925    15
STARLINK-35097          
1 65393C 25191Q   26192.00395833  .00077013  00000+0  53463-2 0  1920
2 65393  97.2850  61.1575 0002122  92.3041 287.2134 15.05623146    11
STARLINK-35058          
1 65394C 25191R   26192.00326389  .00073604  00000+0  51126-2 0  1927
2 65394  97.2845  61.1435 0002435  91.9276 253.9853 15.05603039    10
STARLINK-35094          
1 65395C 25191S   26192.04423611 -.00014300  00000+0 -99235-3 0  1922
2 65395  97.2847  61.1759 0002269  89.2075 103.7320 15.05681603    18
STARLINK-34811          
1 65396C 25191T   26192.01645833  .00074608  00000+0  51800-2 0  1922
2 65396  97.2857  61.1199 0003204  84.5512 242.8214 15.05616971    15
STARLINK-34940          
1 65397C 25191U   26192.00395833  .00182420  00000+0  12647-1 0  1921
2 65397  97.2854  61.1776 0002220  92.2898 332.2946 15.05618697    17
STARLINK-34931          
1 65398C 25191V   26192.03868056  .00075459  00000+0  52381-2 0  1920
2 65398  97.2852  61.1540 0002791  89.4049  28.2634 15.05624770    19
STARLINK-34836          
1 65399C 25191W   26192.00951389  .00066409  00000+0  46111-2 0  1929
2 65399  97.2846  61.1691 0001716  94.9499 329.7915 15.05621284    14
STARLINK-34876          
1 65400C 25191X   26192.01576389  .00079278  00000+0  55034-2 0  1928
2 65400  97.2871  61.2363 0002591  99.5451 133.9781 15.05622143    14
STARLINK-34909          
1 65401C 25191Y   26192.01923611  .00081827  00000+0  56815-2 0  1924
2 65401  97.2866  61.2052 0002303  88.4584  88.9420 15.05613254    11
STARLINK-34848          
1 65402C 25191Z   26192.02340278  .00079722  00000+0  55354-2 0  1926
2 65402  97.2872  61.2229 0002400  75.1124 154.8549 15.05613941    14
STARLINK-35031          
1 65404C 25192A   26192.00118056  .00027280  00000+0  80632-3 0  1924
2 65404  53.1588  27.9798 0001221  81.4346 355.9470 15.34364177    10
STARLINK-34830          
1 65405C 25192B   26192.04562500  .00016780  00000+0  53966-3 0  1929
2 65405  53.1585  18.6561 0000745  75.3483 179.7863 15.31690475    15
STARLINK-35036          
1 65406C 25192C   26192.00673611  .00044820  00000+0  13612-2 0  1921
2 65406  53.1594  19.6152 0001091  77.5636 289.9594 15.33498550    19
STARLINK-35035          
1 65407C 25192D   26191.98868056  .00036717  00000+0  12377-2 0  1919
2 65407  53.1596  19.6826 0001222  79.8924 196.1097 15.30169163    10
STARLINK-35008          
1 65408C 25192E   26192.03798611  .00030091  00000+0  10136-2 0  1927
2 65408  53.1596  19.4177 0000612 114.1317  90.9856 15.30194768    12
STARLINK-35022          
1 65409C 25192F   26192.01368056  .00045031  00000+0  14485-2 0  1923
2 65409  53.1604  18.6081 0001113  78.6858 101.3155 15.31670170    15
STARLINK-35024          
1 65410C 25192G   26191.99631944  .00042477  00000+0  13667-2 0  1911
2 65410  53.1601  18.7394 0001135  74.6361 343.8818 15.31662899    19
STARLINK-34983          
1 65411C 25192H   26192.04284722  .00026542  00000+0  85386-3 0  1921
2 65411  53.1600  18.3608 0000669  67.7561 328.4102 15.31676654    18
STARLINK-34992          
1 65412C 25192J   26192.00465278  .00044109  00000+0  14179-2 0  1925
2 65412  53.1601  18.5891 0001018  82.0152  77.7107 15.31692915    18
STARLINK-35003          
1 65413C 25192K   26192.01645833  .00036588  00000+0  10815-2 0  1929
2 65413  53.1602  19.5533 0001078  72.5619 354.0354 15.34357296    10
STARLINK-34238          
1 65415C 25192M   26192.04215278  .00071086  00000+0  21568-2 0  1929
2 65415  53.1588  19.5659 0000876  84.6887  55.7606 15.33517595    14
STARLINK-34855          
1 65416C 25192N   26192.01784722  .00041978  00000+0  13502-2 0  1928
2 65416  53.1594  19.6473 0000918  92.5261 291.6059 15.31674204    10
STARLINK-34255          
1 65417C 25192P   26192.00465278  .00027986  00000+0  82698-3 0  1926
2 65417  53.1604  19.5840 0000421  62.0380 310.9144 15.34372149    19
STARLINK-34997          
1 65418C 25192Q   26192.04562500  .00017601  00000+0  59320-3 0  1926
2 65418  53.1598  19.3926 0001152  75.0684 166.4258 15.30182953    16
STARLINK-35085          
1 65419C 25192R   26192.01506944  .00032761  00000+0  10537-2 0  1924
2 65419  53.1585  18.2458 0001043  81.3829 290.2765 15.31679337    18
STARLINK-35138          
1 65420C 25192S   26192.00534722  .00040120  00000+0  12903-2 0  1927
2 65420  53.1599  18.7523 0000798  67.4004  15.1526 15.31679029    16
